[{"OBJECT_NAME":"GEOSCAN 2 (RS92S2)","OBJECT_ID":"2025-155Q","EPOCH":"2026-03-09T23:01:48.939744","MEAN_MOTION":15.28709337,"ECCENTRICITY":0.00085277,"INCLINATION":97.4463,"RA_OF_ASC_NODE":37.5259,"ARG_OF_PERICENTER":140.9505,"MEAN_ANOMALY":219.2352,"EPHEMERIS_TYPE":0,"CLASSIFICATION_TYPE":"U","NORAD_CAT_ID":64890,"ELEMENT_SET_NO":999,"REV_AT_EPOCH":6561,"BSTAR":0.00051551761,"MEAN_MOTION_DOT":0.00014341,"MEAN_MOTION_DDOT":0},{"OBJECT_NAME":"STARLINK-35389","OBJECT_ID":"2025-259N","EPOCH":"2026-03-09T22:40:12.194976","MEAN_MOTION":15.27589011,"ECCENTRICITY":0.00012827,"INCLINATION":43.0018,"RA_OF_ASC_NODE":272.6129,"ARG_OF_PERICENTER":244.3202,"MEAN_ANOMALY":115.7517,"EPHEMERIS_TYPE":0,"CLASSIFICATION_TYPE":"U","NORAD_CAT_ID":66434,"ELEMENT_SET_NO":999,"REV_AT_EPOCH":1953,"BSTAR":0.00091652927,"MEAN_MOTION_DOT":0.00025051,"MEAN_MOTION_DDOT":0}]
